ORBCOMM-X               
1 21576U 91050C   26025.62734412  .00000616  00000+0  19477-3 0  9993
2 21576  98.3159  92.3942 0002807 217.5722 142.5273 14.43480381814205
ORBCOMM FM01            
1 23545U 95017A   26025.55641400  .00009404  00000+0  89073-3 0  9997
2 23545  69.9595 238.1885 0005509 303.1519  56.9109 14.93858827645673
ORBCOMM FM02            
1 23546U 95017B   26025.64814667  .00014522  00000+0  13062-2 0  9996
2 23546  69.9615 256.2999 0006688 309.3482  50.7082 14.95730106645369
ORBCOMM FM08            
1 25112U 97084A   26025.19505061  .00002721  00000+0  78313-3 0  9997
2 25112  45.0143  21.3857 0008397 294.1631  65.8342 14.46794116473510
ORBCOMM FM10            
1 25113U 97084B   26025.28091588  .00002894  00000+0  83526-3 0  9995
2 25113  45.0155  23.7757 0006694 269.1487  90.8598 14.46530388648668
ORBCOMM FM11            
1 25114U 97084C   26025.25555147  .00002651  00000+0  77241-3 0  9997
2 25114  45.0141  24.9419 0007535 268.9205  91.0783 14.46270938473614
ORBCOMM FM12            
1 25115U 97084D   26025.28391950  .00002670  00000+0  77744-3 0  9990
2 25115  45.0146  24.5324 0006607 268.3833  91.6262 14.46295461473415
ORBCOMM FM09            
1 25116U 97084E   26024.99261016  .00002852  00000+0  83056-3 0  9992
2 25116  45.0151  27.1158 0007587 256.3601 103.6406 14.46125991473575
